FLOCK 3P-75             
1 41979U 17008AH  17337.61063062  .00003131  00000-0  13380-3 0  9997
2 41979  97.4792  38.5243 0007414 331.7092  28.3741 15.23587022 44318
FLOCK 3P-70             
1 41980U 17008AJ  17337.60889494  .00003250  00000-0  13882-3 0  9992
2 41980  97.4794  38.5294 0007362 331.1032  28.9797 15.23584151 44168
FLOCK 3P-73             
1 41981U 17008AK  17337.42064390  .00001134  00000-0  50445-4 0  9999
2 41981  97.4790  38.3222 0007662 332.6567  27.4266 15.23557202 44269
FLOCK 3P-88             
1 41982U 17008AL  17337.60629580  .00003095  00000-0  13215-3 0  9999
2 41982  97.4790  38.5229 0007418 331.7283  28.3550 15.23628248 43267
FLOCK 3P-85             
1 41983U 17008AM  17337.85473357  .00002212  00000-0  95320-4 0  9994
2 41983  97.4791  38.8115 0007401 334.4613  25.6257 15.23626957 44209
FLOCK 3P-79             
1 41984U 17008AN  17337.85564750  .00003241  00000-0  13805-3 0  9993
2 41984  97.4790  38.8096 0007096 334.8764  25.2126 15.23677103 44208
FLOCK 3P-86             
1 41985U 17008AP  17337.85671824  .00003121  00000-0  13310-3 0  9993
2 41985  97.4790  38.8029 0007030 334.0013  26.0869 15.23663958 44196
FLOCK 3P-36             
1 41986U 17008AQ  17337.85943378  .00003277  00000-0  13967-3 0  9990
2 41986  97.4775  38.7304 0006743 331.8679  28.2193 15.23650381 43681
FLOCK 3P-30             
1 41987U 17008AR  17337.39036465  .00002418  00000-0  10388-3 0  9990
2 41987  97.4775  38.2856 0006710 335.1641  24.9272 15.23638155 44080
FLOCK 3P-34             
1 41988U 17008AS  17337.59997913  .00003402  00000-0  14476-3 0  9993
2 41988  97.4771  38.4497 0006727 329.8411  30.2438 15.23676116 43647
FLOCK 3P-35             
1 41989U 17008AT  17337.60249062  .00003263  00000-0  13912-3 0  9990
2 41989  97.4770  38.4449 0006902 329.7043  30.3794 15.23636601 43640
FLOCK 3P-33             
1 41990U 17008AU  17337.79476660  .00003329  00000-0  14181-3 0  9990
2 41990  97.4770  38.6536 0006566 330.7243  29.3625 15.23662018 43676
LEMUR-2-SATCHMO         
1 41991U 17008AV  17337.73787682  .00001281  00000-0  57799-4 0  9992
2 41991  97.4759  38.4115 0006957 334.1512  25.9376 15.22833555 43654
LEMUR-2-MIA-GRACE       
1 41992U 17008AW  17337.82733742  .00001564  00000-0  69025-4 0  9990
2 41992  97.4765  38.6086 0006836 333.9023  26.1868 15.23262693 43672
LEMUR-2-SMITA-SHARAD    
1 41993U 17008AX  17337.12604863  .00001489  00000-0  66345-4 0  9993
2 41993  97.4760  37.8524 0006969 336.4328  23.6588 15.22992576 43567
LEMUR-2-SPIRE-MINIONS   
1 41994U 17008AY  17337.83525502  .00001608  00000-0  70954-4 0  9998
2 41994  97.4761  38.5902 0006858 332.8914  27.1964 15.23222691 43679
LEMUR-2-RDEATON         
1 41995U 17008AZ  17337.25095415  .00001407  00000-0  62780-4 0  9995
2 41995  97.4761  37.9954 0008383 348.7766  11.3282 15.23047346 44262
LEMUR-2-NOGUECORREIG    
1 41996U 17008BA  17337.23026611  .00001900  00000-0  83200-4 0  9994
2 41996  97.4770  38.0300 0008218 349.4274  10.6788 15.23244433 43481
LEMUR-2-JOBANPUTRA      
1 41997U 17008BB  17337.80143856  .00001672  00000-0  73305-4 0  9990
2 41997  97.4770  38.6473 0008136 347.2775  12.8255 15.23379819 43660
LEMUR-2-TACHIKOMA       
1 41998U 17008BC  17337.25700767  .00001404  00000-0  62830-4 0  9994
2 41998  97.4760  37.9853 0008315 349.3987  10.7073 15.22947016 43508
BGUSAT                  
1 41999U 17008BD  17337.51717925  .00002332  00000-0  10011-3 0  9992
2 41999  97.4775  38.4296 0008058 349.3838  10.7228 15.23694527 43623
DIDO-2                  
1 42000U 17008BE  17337.60004480  .00001038  00000-0  47504-4 0  9991
2 42000  97.4757  38.2879 0008302 348.9816  11.1237 15.22765162 43634
FLOCK 3P-49             
1 42001U 17008BF  17337.84653360  .00002024  00000-0  87387-4 0  9994
2 42001  97.4770  38.7409 0007719 349.1940  10.9130 15.23657990 44209
FLOCK 3P-67             
1 42002U 17008BG  17337.84945963  .00002253  00000-0  96704-4 0  9995
2 42002  97.4768  38.7310 0007594 348.0810  12.0246 15.23738231 44369
FLOCK 3P-68             
1 42003U 17008BH  17337.85424457  .00003293  00000-0  14019-3 0  9990
2 42003  97.4768  38.7197 0007735 346.8937  13.2098 15.23675627 44004
FLOCK 3P-41             
1 42004U 17008BJ  17337.25090281  .00002680  00000-0  11478-3 0  9994
2 42004  97.4768  38.1408 0007626 351.5065   8.6041 15.23639588 44112
FLOCK 3P-45             
1 42005U 17008BK  17337.84504655  .00002339  00000-0  10027-3 0  9995
2 42005  97.4768  38.7360 0007532 349.4747  10.6331 15.23741787 44351
FLOCK 3P-48             
1 42006U 17008BL  17337.84515683  .00003291  00000-0  14023-3 0  9997
2 42006  97.4772  38.7425 0007497 350.4560   9.6534 15.23652094 44146
FLOCK 3P-43             
1 42007U 17008BM  17337.84364086  .00001190  00000-0  52679-4 0  9993
2 42007  97.4767  38.7329 0007392 350.3926   9.7168 15.23608818 44355
FLOCK 3P-42             
1 42008U 17008BN  17337.18622166  .00003939  00000-0  16755-3 0  9994
2 42008  97.4770  38.0737 0007526 352.7153   7.3973 15.23591301 44180
FLOCK 3P-61             
1 42009U 17008BP  17337.77592395  .00001060  00000-0  47327-4 0  9993
2 42009  97.4767  38.6698 0007468 352.8545   7.2584 15.23568412 44320
FLOCK 3P-40             
1 42010U 17008BQ  17337.70375436  .00001153  00000-0  51210-4 0  9992
2 42010  97.4761  38.5922 0007414 353.9787   6.1359 15.23558448 43578
FLOCK 3P-16             
1 42011U 17008BR  17337.16628468  .00001606  00000-0  70180-4 0  9999
2 42011  97.4765  38.0884 0007168 357.1513   2.9681 15.23550976 43439
FLOCK 3P-14             
1 42012U 17008BS  17337.16882593  .00002213  00000-0  95269-4 0  9991
2 42012  97.4772  38.0993 0007314 358.7474   1.3743 15.23664322 44057
FLOCK 3P-53             
1 42013U 17008BT  17337.82876184  .00002021  00000-0  87198-4 0  9993
2 42013  97.4759  38.7194 0007135 355.0184   5.0980 15.23679540 44155
FLOCK 3P-54             
1 42014U 17008BU  17337.82954686  .00001169  00000-0  51922-4 0  9996
2 42014  97.4764  38.7342 0007120 355.7100   4.4075 15.23542747 44321
PEASSS                  
1 42015U 17008BV  17337.61083814  .00001235  00000-0  54761-4 0  9998
2 42015  97.4750  38.5409 0006431   0.9095 359.2153 15.23485488 44130
AL-FARABI 1             
1 42016U 17008BW  17337.84535471  .00001549  00000-0  67374-4 0  9997
2 42016  97.4754  38.8517 0006314   0.6769 359.4476 15.23772645 44294
NAYIF-1 (EO-88)         
1 42017U 17008BX  17337.57969278  .00001509  00000-0  65687-4 0  9995
2 42017  97.4755  38.5917 0006297   2.3264 357.8001 15.23791431 44274
FLOCK 3P-23             
1 42018U 17008BY  17337.76268832  .00001149  00000-0  51118-4 0  9999
2 42018  97.4758  38.5073 0007632 325.1489  34.9247 15.23525513 43113
FLOCK 3P-76             
1 42019U 17008BZ  17337.79765264  .00003049  00000-0  13012-3 0  9995
2 42019  97.4794  38.7433 0007465 332.8515  27.2331 15.23653928 44184
FLOCK 3P-69             
1 42020U 17008CA  17337.59930903  .00003305  00000-0  14082-3 0  9992
2 42020  97.4795  38.5480 0007286 332.3579  27.7270 15.23650546 43047
FLOCK 3P-84             
1 42021U 17008CB  17337.60852159  .00003085  00000-0  13190-3 0  9995
2 42021  97.4790  38.5194 0007675 331.3139  28.7675 15.23585483 44169
FLOCK 3P-59             
1 42022U 17008CC  17337.60935444  .00002344  00000-0  10072-3 0  9998
2 42022  97.4769  38.4392 0007087 332.4781  27.6080 15.23669718 43180
FLOCK 3P-32             
1 42023U 17008CD  17337.61231362  .00001330  00000-0  58615-4 0  9998
2 42023  97.4768  38.4375 0007036 328.4187  31.6626 15.23576977 44322
FLOCK 3P-71             
1 42024U 17008CE  17337.23551246  .00002791  00000-0  11975-3 0  9992
2 42024  97.4796  38.1214 0007613 334.5143  25.5718 15.23543274 43130
FLOCK 3P-77             
1 42025U 17008CF  17337.60173878  .00003279  00000-0  13975-3 0  9999
2 42025  97.4793  38.5355 0007383 333.9588  26.1277 15.23650710 44163
FLOCK 3P-80             
1 42026U 17008CG  17337.12621332  .00003078  00000-0  13124-3 0  9993
2 42026  97.4793  38.0938 0007038 336.7767  23.3150 15.23685483 42233
FLOCK 3P-66             
1 42027U 17008CH  17337.78747128  .00002124  00000-0  91531-4 0  9998
2 42027  97.4770  38.6668 0007685 346.1912  13.9113 15.23674367 44303
FLOCK 3P-65             
1 42028U 17008CJ  17337.85142130  .00003140  00000-0  13385-3 0  9998
2 42028  97.4771  38.7340 0007576 346.6705  13.4330 15.23675132 44214
FLOCK 3P-50             
1 42029U 17008CK  17337.12541077  .00001607  00000-0  70023-4 0  9991
2 42029  97.4773  38.0264 0007621 351.9250   8.1862 15.23654977 43427
FLOCK 3P-52             
1 42030U 17008CL  17337.38958818  .00002386  00000-0  10252-3 0  9998
2 42030  97.4773  38.2742 0007599 350.0172  10.0912 15.23642178 44237
FLOCK 3P-46             
1 42031U 17008CM  17337.84427403  .00001914  00000-0  82836-4 0  9995
2 42031  97.4766  38.7310 0007525 349.5207  10.5872 15.23648889 44333
FLOCK 3P-47             
1 42032U 17008CN  17337.84592785  .00002300  00000-0  98900-4 0  9991
2 42032  97.4766  38.7277 0007510 350.2124   9.8965 15.23652180 44183
FLOCK 3P-44             
1 42033U 17008CP  17337.70792900  .00001007  00000-0  45091-4 0  9994
2 42033  97.4769  38.6136 0007593 353.1888   6.9244 15.23592935 42918
FLOCK 3P-64             
1 42034U 17008CQ  17337.77376388  .00001161  00000-0  51545-4 0  9992
2 42034  97.4765  38.6640 0007462 352.4606   7.6517 15.23556541 44343
FLOCK 3P-63             
1 42035U 17008CR  17337.83674454  .00001244  00000-0  54987-4 0  9990
2 42035  97.4762  38.7279 0007445 352.1863   7.9256 15.23584944 42320
FLOCK 3P-62             
1 42036U 17008CS  17337.22879005  .00002618  00000-0  11163-3 0  9997
2 42036  97.4768  38.1679 0007538 356.2198   3.8981 15.23815211 43431
FLOCK 3P-38             
1 42037U 17008CT  17337.83538237  .00001136  00000-0  50479-4 0  9992
2 42037  97.4764  38.7318 0007210 353.5438   6.5704 15.23572092 44305
